satname,norad_id,inclination_deg,eccentricity,mean_motion_rev_per_day,perigee_km,apogee_km,l1,l2
STARLINK-1152,45096,53.0434,0.0006062,15.28913402,474.9024804029641,483.216145212612,1 45096U 20006BE  25355.79007235  .00041827  00000+0  14728-2 0  9990,2 45096  53.0434 211.2462 0006062  75.2242 284.9428 15.28913402325630
STARLINK-1184,45098,53.0527,0.0002004,15.06919831,544.2312881435528,547.0063294717229,1 45098U 20006BG  25355.82063059  .00012993  00000+0  87723-3 0  9990,2 45098  53.0527 236.1630 0002004 117.1401 242.9793 15.06919831325281
STARLINK-1193,45100,53.0544,0.0001518,15.06397598,546.1676507034917,548.2701887607236,1 45100U 20006BJ  25355.81921429 -.00000237  00000+0  29741-5 0  9994,2 45100  53.0544 236.1917 0001518  94.6431 265.4731 15.06397598325285
STARLINK-1143,45179,53.0519,3.54e-05,15.47554292,423.64232413238005,424.12390715656784,1 45179U 20012B   25355.71792913  .00112897  00000+0  21354-2 0  9994,2 45179  53.0519 346.7130 0000354  80.9261 279.1786 15.47554292323791
STARLINK-1202,45183,53.0559,0.000118,15.06399486,546.395941958971,548.0303245904233,1 45183U 20012F   25355.81552418  .00002026  00000+0  15487-3 0  9997,2 45183  53.0559  36.2103 0001180  88.2836 271.8288 15.06399486323106
STARLINK-1216,45185,53.0556,0.0001211,15.06400862,546.3702566432567,548.0475754241206,1 45185U 20012H   25355.80814877 -.00000023  00000+0  17322-4 0  9995,2 45185  53.0556  36.2400 0001211  84.4276 275.6851 15.06400862323048
STARLINK-1225,45187,53.0567,0.0001201,15.0639559,546.3933380010094,548.05680997118,1 45187U 20012K   25355.82658064  .00001171  00000+0  97474-4 0  9993,2 45187  53.0567  36.1605 0001201  94.0972 266.0154 15.06395590323093
STARLINK-1230,45189,53.0569,0.0001343,15.06399188,546.2839719568874,548.1441212480058,1 45189U 20012M   25355.83025465  .00000090  00000+0  24922-4 0  9996,2 45189  53.0569  36.1461 0001343  93.4171 266.6972 15.06399188320322
STARLINK-1234,45190,53.0503,0.0009354,15.44732049,425.7951499643159,438.5358638942789,1 45190U 20012N   25355.35354877  .00113901  00000+0  23700-2 0  9994,2 45190  53.0503 343.1628 0009354  29.3415 330.8115 15.44732049323704
STARLINK-1269,45197,53.0554,0.0001426,15.06398354,546.2290472720597,548.2041581195481,1 45197U 20012V   25355.50959505  .00003129  00000+0  22889-3 0  9995,2 45197  53.0554  37.5792 0001426  84.1547 275.9604 15.06398354323022
STARLINK-1154,45198,53.0571,0.0001629,15.06408758,546.0565811521601,548.3128509672533,1 45198U 20012W   25354.77055567  .00005195  00000+0  36729-3 0  9992,2 45198  53.0571  20.9014 0001629  90.8068 269.3108 15.06408758323163
STARLINK-1199,45201,53.0561,0.0001253,15.06394877,546.3595110982451,548.0950073816111,1 45201U 20012Z   25355.77682294  .00000279  00000+0  37598-4 0  9995,2 45201  53.0561  16.3836 0001253  87.2243 272.8889 15.06394877323370
STARLINK-1209,45206,53.0527,0.0010183,15.37705003,445.94163057077276,459.8537157861674,1 45206U 20012AE  25355.81972709  .00091578  00000+0  24147-2 0  9994,2 45206  53.0527 343.9100 0010183  32.0783 328.0837 15.37705003322882
STARLINK-1210,45207,53.0218,0.000427,15.70975779,353.23148553556257,358.98252991816025,1 45207U 20012AF  25355.91670139  .00166367  00000+0  12808-2 0  9998,2 45207  53.0218 294.5438 0004270 145.9650 299.1997 15.70975779  5959
STARLINK-1231,45212,53.0513,0.0001706,15.15502438,518.2768937350238,520.6303516554872,1 45212U 20012AL  25355.46921579  .00025392  00000+0  13363-2 0  9990,2 45212  53.0513  13.3871 0001706 179.5565 180.5430 15.15502438323348
STARLINK-1271,45217,53.0571,0.0001219,15.06394675,546.3836763657428,548.0720803230824,1 45217U 20012AR  25355.36399446  .00000824  00000+0  74236-4 0  9997,2 45217  53.0571  18.2341 0001219  93.6748 266.4381 15.06394675323319
STARLINK-1191,45222,53.0549,0.0001216,15.06396739,546.3794288516592,548.0636760516154,1 45222U 20012AW  25355.70494142  .00000693  00000+0  65426-4 0  9995,2 45222  53.0549 356.7043 0001216  86.9496 273.1632 15.06396739323644
STARLINK-1212,45223,53.0544,0.0001059,15.0638986,546.5092380487513,547.976033455604,1 45223U 20012AX  25355.72345700 -.00001511  00000+0 -82591-4 0  9997,2 45223  53.0544 357.2794 0001059  93.4334 266.6776 15.06389860323641
STARLINK-1215,45225,53.0562,0.0001405,15.06399113,546.2412646125167,548.1872883212045,1 45225U 20012AZ  25355.28105743  .00000897  00000+0  79121-4 0  9990,2 45225  53.0562 358.6092 0001405  85.8482 274.2668 15.06399113323538
STARLINK-1221,45227,53.0678,0.0005618,15.38803567,445.8102846433976,453.48198177186987,1 45227U 20012BB  25355.20795355  .00013713  00000+0  36154-3 0  9997,2 45227  53.0678 280.6207 0005618 110.1040 250.0568 15.38803567324611
STARLINK-1222,45228,53.0574,0.0001441,15.38188643,450.4815683597253,452.44985986193115,1 45228U 20012BC  25355.91670139  .01764019  00000+0  41653-1 0  9999,2 45228  53.0574 353.6290 0001441 102.1215 300.9428 15.38188643  5858
STARLINK-1226,45229,53.0575,0.0001627,15.06402196,546.0780744073982,548.3315806380742,1 45229U 20012BD  25355.74180277  .00001059  00000+0  89968-4 0  9991,2 45229  53.0575 356.5397 0001627  87.8396 272.2780 15.06402196323543
STARLINK-1227,45230,53.057,0.0001472,15.06396127,546.2040150958719,548.2428412059189,1 45230U 20012BE  25355.73811894  .00000811  00000+0  73370-4 0  9993,2 45230  53.0570 356.5568 0001472  89.9831 270.1327 15.06396127323668
STARLINK-1246,45235,53.0564,0.0001368,15.06396389,546.2752359585847,548.1700143520275,1 45235U 20012BK  25355.42112197  .00002146  00000+0  16296-3 0  9990,2 45235  53.0564  37.9793 0001368  89.4891 270.6255 15.06396389323060
STARLINK-1270,45237,53.0536,0.0001275,15.22016901,498.88080200818786,500.63466516525295,1 45237U 20012BM  25355.91670139  .01646086  00000+0  65328-1 0  9997,2 45237  53.0536 355.3269 0001275  54.3399 315.6061 15.22016901  5842
STARLINK-1279,45360,53.0491,0.0004087,15.42699812,435.35930113953145,440.9309301408548,1 45360U 20019A   25355.77866597  .00097331  00000+0  21775-2 0  9991,2 45360  53.0491 112.2627 0004087 214.0850 145.9893 15.42699812318594
STARLINK-1301,45361,53.0482,0.0004613,15.45904954,425.5803378500905,431.86034443302833,1 45361U 20019B   25355.78018637  .00106817  00000+0  21402-2 0  9994,2 45361  53.0482 120.9739 0004613 208.4673 151.6082 15.45904954318481
STARLINK-1306,45362,53.0361,0.0003241,15.93506818,290.3162831830123,294.640175974826,1 45362U 20019C   25355.91670139  .00285402  42354-4  78467-3 0  9996,2 45362  53.0361  95.7558 0003241   3.3034 215.0087 15.93506818  6063
STARLINK-1262,45366,53.0541,0.0001309,15.06396465,546.315862680889,548.128921769774,1 45366U 20019G   25355.73442622 -.00000722  00000+0 -29571-4 0  9996,2 45366  53.0541 156.5688 0001309  92.5628 267.5511 15.06396465317988
STARLINK-1273,45367,53.0544,0.0001298,15.06395642,546.326002636295,548.1238265893289,1 45367U 20019H   25355.75655279 -.00000691  00000+0 -27484-4 0  9999,2 45367  53.0544 156.4710 0001298  89.9409 270.1728 15.06395642317987
STARLINK-1276,45368,53.0543,0.0001216,15.06405456,546.3527157832805,548.0369564858283,1 45368U 20019J   25355.72707560  .00000897  00000+0  79119-4 0  9996,2 45368  53.0543 156.6063 0001216  91.4034 268.7094 15.06405456317986
STARLINK-1277,45369,53.0538,0.0001456,15.06399067,546.2060862839962,548.2227486167567,1 45369U 20019K   25355.71976205  .00000089  00000+0  24894-4 0  9993,2 45369  53.0538 157.2643 0001456  91.3402 268.7754 15.06399067317978
STARLINK-1281,45370,53.0536,0.0001332,15.06391266,546.3158665261926,548.1607865131791,1 45370U 20019L   25355.71599978 -.00000853  00000+0 -38357-4 0  9993,2 45370  53.0536 156.6577 0001332  91.6586 268.4556 15.06391266317987
STARLINK-1300,45374,53.0534,0.0001585,15.06395594,546.1273918398274,548.3227316133944,1 45374U 20019Q   25355.73811866 -.00000054  00000+0  15294-4 0  9999,2 45374  53.0534 156.5541 0001585  94.6111 265.5059 15.06395594317980
STARLINK-1302,45375,53.0553,0.0001335,15.06398537,546.2915071951129,548.1405764572801,1 45375U 20019R   25355.75286028  .00000937  00000+0  81815-4 0  9999,2 45375  53.0553 156.4891 0001335  89.6922 270.4219 15.06398537317989
STARLINK-1304,45376,53.0559,0.0001463,15.06399538,546.1997952009169,548.2261526032808,1 45376U 20019S   25355.83763707  .00001428  00000+0  11476-3 0  9994,2 45376  53.0559 156.1062 0001463  83.3175 276.7980 15.06399538317993
STARLINK-1305,45377,53.0504,0.0006587,15.38624092,445.6792700637734,454.6748910334891,1 45377U 20019T   25355.91670139  .00113855  00000+0  29054-2 0  9998,2 45377  53.0504 143.1398 0006587 176.1482  93.0919 15.38624092  5870
STARLINK-1319,45379,53.0503,0.0005129,15.43960058,430.94128247801655,437.92961929813737,1 45379U 20019V   25355.91670139  .00136249  00000+0  29029-2 0  9994,2 45379  53.0503 143.8056 0005129 188.7999 130.9879 15.43960058  5835
STARLINK-1266,45383,53.0544,0.0001255,15.06400741,546.3401559219283,548.0784178399363,1 45383U 20019Z   25355.65886215  .00000536  00000+0  54842-4 0  9996,2 45383  53.0544 136.9144 0001255  93.9388 266.1744 15.06400741318243
STARLINK-1267,45384,53.0554,0.0001293,15.23895131,493.216566272582,494.9937280918439,1 45384U 20019AA  25355.91670139  .01104137  00000+0  41722-1 0  9995,2 45384  53.0554 135.8221 0001293  71.9488 273.3329 15.23895131  5857
STARLINK-1272,45386,53.0504,0.0005406,15.42164106,436.0378165883658,443.4092874171911,1 45386U 20019AC  25355.77214564  .00103759  00000+0  23603-2 0  9994,2 45386  53.0504 122.9086 0005406 205.7028 154.3708 15.42164106318451
STARLINK-1274,45387,53.0348,0.0001339,15.35770073,457.7186784968553,459.54956580336784,1 45387U 20019AD  25355.73049382  .00097843  00000+0  27466-2 0  9992,2 45387  53.0348 112.4685 0001339  35.4668 324.6422 15.35770073318594
STARLINK-1280,45388,53.0493,0.000641,15.4782531,418.72950226620196,427.4486741112587,1 45388U 20019AE  25355.91670139  .00130601  00000+0  24388-2 0  9993,2 45388  53.0493 139.5431 0006410 169.2356 238.4810 15.47825310  5897
